[{"OBJECT_NAME":"STARLINK-3764","OBJECT_ID":"2022-041V","EPOCH":"2026-03-09T12:34:55.006464","MEAN_MOTION":15.08835355,"ECCENTRICITY":0.0001432,"INCLINATION":53.2165,"RA_OF_ASC_NODE":109.8637,"ARG_OF_PERICENTER":101.2795,"MEAN_ANOMALY":258.8358,"EPHEMERIS_TYPE":0,"CLASSIFICATION_TYPE":"U","NORAD_CAT_ID":52280,"ELEMENT_SET_NO":999,"REV_AT_EPOCH":21434,"BSTAR":-3.1397e-5,"MEAN_MOTION_DOT":-7.88e-6,"MEAN_MOTION_DDOT":0},{"OBJECT_NAME":"DELTA 1 DEB","OBJECT_ID":"1977-065GP","EPOCH":"2026-03-02T03:31:01.237440","MEAN_MOTION":13.03355834,"ECCENTRICITY":0.09264479,"INCLINATION":28.9861,"RA_OF_ASC_NODE":227.6335,"ARG_OF_PERICENTER":184.391,"MEAN_ANOMALY":174.8,"EPHEMERIS_TYPE":0,"CLASSIFICATION_TYPE":"U","NORAD_CAT_ID":39102,"ELEMENT_SET_NO":999,"REV_AT_EPOCH":54183,"BSTAR":0.00017441468,"MEAN_MOTION_DOT":5.88e-6,"MEAN_MOTION_DDOT":0}]
